CCSDS_OMM_VERS = 2.0
CREATION_DATE  = 
ORIGINATOR     = 

OBJECT_NAME    = STARLINK-35691
OBJECT_ID      = 2025-257AA
CENTER_NAME    = EARTH
REF_FRAME      = TEME
TIME_SYSTEM    = UTC
MEAN_ELEMENT_THEORY = SGP/SGP4

EPOCH          = 2025-12-09T16:00:01.999584
MEAN_MOTION    = 15.39545706
ECCENTRICITY   = .00010723
INCLINATION    = 53.1585
RA_OF_ASC_NODE = 278.5620
ARG_OF_PERICENTER = 99.2920
MEAN_ANOMALY   = 225.2036

EPHEMERIS_TYPE = 0
CLASSIFICATION_TYPE = U
NORAD_CAT_ID   = 66404
ELEMENT_SET_NO = 999
REV_AT_EPOCH   = 600
BSTAR          = .28382032E-2
MEAN_MOTION_DOT = .114566E-2
MEAN_MOTION_DDOT = 0

CCSDS_OMM_VERS = 2.0
CREATION_DATE  = 
ORIGINATOR     = 

OBJECT_NAME    = STARLINK-35683
OBJECT_ID      = 2025-257AB
CENTER_NAME    = EARTH
REF_FRAME      = TEME
TIME_SYSTEM    = UTC
MEAN_ELEMENT_THEORY = SGP/SGP4

EPOCH          = 2025-12-09T16:00:01.999584
MEAN_MOTION    = 15.40571857
ECCENTRICITY   = .00015573
INCLINATION    = 53.1588
RA_OF_ASC_NODE = 278.5106
ARG_OF_PERICENTER = 116.4894
MEAN_ANOMALY   = 233.2167

EPHEMERIS_TYPE = 0
CLASSIFICATION_TYPE = U
NORAD_CAT_ID   = 66405
ELEMENT_SET_NO = 999
REV_AT_EPOCH   = 584
BSTAR          = -.35168116E-1
MEAN_MOTION_DOT = -.1308126E-1
MEAN_MOTION_DDOT = 0

CCSDS_OMM_VERS = 2.0
CREATION_DATE  = 
ORIGINATOR     = 

OBJECT_NAME    = STARLINK-34840
OBJECT_ID      = 2025-257AC
CENTER_NAME    = EARTH
REF_FRAME      = TEME
TIME_SYSTEM    = UTC
MEAN_ELEMENT_THEORY = SGP/SGP4

EPOCH          = 2025-12-09T11:15:10.778400
MEAN_MOTION    = 15.49355554
ECCENTRICITY   = .00012592
INCLINATION    = 53.1580
RA_OF_ASC_NODE = 279.3888
ARG_OF_PERICENTER = 122.2411
MEAN_ANOMALY   = 237.8720

EPHEMERIS_TYPE = 0
CLASSIFICATION_TYPE = U
NORAD_CAT_ID   = 66406
ELEMENT_SET_NO = 999
REV_AT_EPOCH   = 581
BSTAR          = .22382017E-2
MEAN_MOTION_DOT = .126269E-2
MEAN_MOTION_DDOT = 0

CCSDS_OMM_VERS = 2.0
CREATION_DATE  = 
ORIGINATOR     = 

OBJECT_NAME    = STARLINK-35686
OBJECT_ID      = 2025-257AD
CENTER_NAME    = EARTH
REF_FRAME      = TEME
TIME_SYSTEM    = UTC
MEAN_ELEMENT_THEORY = SGP/SGP4

EPOCH          = 2025-12-09T16:00:01.999584
MEAN_MOTION    = 15.43890994
ECCENTRICITY   = .00009952
INCLINATION    = 53.1582
RA_OF_ASC_NODE = 278.4732
ARG_OF_PERICENTER = 105.5240
MEAN_ANOMALY   = 263.1126

EPHEMERIS_TYPE = 0
CLASSIFICATION_TYPE = U
NORAD_CAT_ID   = 66407
ELEMENT_SET_NO = 999
REV_AT_EPOCH   = 600
BSTAR          = -.48984822E-1
MEAN_MOTION_DOT = -.2013194E-1
MEAN_MOTION_DDOT = 0

CCSDS_OMM_VERS = 2.0
CREATION_DATE  = 
ORIGINATOR     = 

OBJECT_NAME    = STARLINK-35679
OBJECT_ID      = 2025-257AE
CENTER_NAME    = EARTH
REF_FRAME      = TEME
TIME_SYSTEM    = UTC
MEAN_ELEMENT_THEORY = SGP/SGP4

EPOCH          = 2025-12-09T05:04:06.822048
MEAN_MOTION    = 15.49344451
ECCENTRICITY   = .0001457
INCLINATION    = 53.1586
RA_OF_ASC_NODE = 280.6256
ARG_OF_PERICENTER = 79.4108
MEAN_ANOMALY   = 280.7065

EPHEMERIS_TYPE = 0
CLASSIFICATION_TYPE = U
NORAD_CAT_ID   = 66408
ELEMENT_SET_NO = 999
REV_AT_EPOCH   = 583
BSTAR          = .22741E-2
MEAN_MOTION_DOT = .128284E-2
MEAN_MOTION_DDOT = 0

CCSDS_OMM_VERS = 2.0
CREATION_DATE  = 
ORIGINATOR     = 

OBJECT_NAME    = CHUTIAN-2 A
OBJECT_ID      = 2025-256A
CENTER_NAME    = EARTH
REF_FRAME      = TEME
TIME_SYSTEM    = UTC
MEAN_ELEMENT_THEORY = SGP/SGP4

EPOCH          = 2025-12-09T14:53:13.010208
MEAN_MOTION    = 14.49935752
ECCENTRICITY   = .00135578
INCLINATION    = 98.2770
RA_OF_ASC_NODE = 48.4355
ARG_OF_PERICENTER = 187.1977
MEAN_ANOMALY   = 172.9025

EPHEMERIS_TYPE = 0
CLASSIFICATION_TYPE = U
NORAD_CAT_ID   = 66409
ELEMENT_SET_NO = 999
REV_AT_EPOCH   = 442
BSTAR          = .43679195E-3
MEAN_MOTION_DOT = .1647E-4
MEAN_MOTION_DDOT = 0

CCSDS_OMM_VERS = 2.0
CREATION_DATE  = 
ORIGINATOR     = 

OBJECT_NAME    = CHUTIAN-2 B
OBJECT_ID      = 2025-256B
CENTER_NAME    = EARTH
REF_FRAME      = TEME
TIME_SYSTEM    = UTC
MEAN_ELEMENT_THEORY = SGP/SGP4

EPOCH          = 2025-12-08T12:01:02.397216
MEAN_MOTION    = 14.50918128
ECCENTRICITY   = .0013696
INCLINATION    = 98.2797
RA_OF_ASC_NODE = 47.3789
ARG_OF_PERICENTER = 193.7504
MEAN_ANOMALY   = 166.3320

EPHEMERIS_TYPE = 0
CLASSIFICATION_TYPE = U
NORAD_CAT_ID   = 66410
ELEMENT_SET_NO = 999
REV_AT_EPOCH   = 426
BSTAR          = .34704E-3
MEAN_MOTION_DOT = .1327E-4
MEAN_MOTION_DDOT = 0

CCSDS_OMM_VERS = 2.0
CREATION_DATE  = 
ORIGINATOR     = 

OBJECT_NAME    = ZK-1A R/B
OBJECT_ID      = 2025-256C
CENTER_NAME    = EARTH
REF_FRAME      = TEME
TIME_SYSTEM    = UTC
MEAN_ELEMENT_THEORY = SGP/SGP4

EPOCH          = 2025-12-09T15:35:18.055392
MEAN_MOTION    = 15.01876313
ECCENTRICITY   = .0228619
INCLINATION    = 98.3223
RA_OF_ASC_NODE = 51.2092
ARG_OF_PERICENTER = 255.2836
MEAN_ANOMALY   = 102.2950

EPHEMERIS_TYPE = 0
CLASSIFICATION_TYPE = U
NORAD_CAT_ID   = 66411
ELEMENT_SET_NO = 999
REV_AT_EPOCH   = 458
BSTAR          = .84957764E-3
MEAN_MOTION_DOT = .19584E-3
MEAN_MOTION_DDOT = 0

CCSDS_OMM_VERS = 2.0
CREATION_DATE  = 
ORIGINATOR     = 

OBJECT_NAME    = HULIANWANG DIGUI 13A
OBJECT_ID      = 2025-258A
CENTER_NAME    = EARTH
REF_FRAME      = TEME
TIME_SYSTEM    = UTC
MEAN_ELEMENT_THEORY = SGP/SGP4

EPOCH          = 2025-12-08T08:38:10.619232
MEAN_MOTION    = 14.20432847
ECCENTRICITY   = .00076585
INCLINATION    = 50.0042
RA_OF_ASC_NODE = 280.4566
ARG_OF_PERICENTER = 343.0746
MEAN_ANOMALY   = 16.9909

EPHEMERIS_TYPE = 0
CLASSIFICATION_TYPE = U
NORAD_CAT_ID   = 66412
ELEMENT_SET_NO = 999
REV_AT_EPOCH   = 403
BSTAR          = .33138446E-3
MEAN_MOTION_DOT = .557E-5
MEAN_MOTION_DDOT = 0

CCSDS_OMM_VERS = 2.0
CREATION_DATE  = 
ORIGINATOR     = 

OBJECT_NAME    = HULIANWANG DIGUI 13B
OBJECT_ID      = 2025-258B
CENTER_NAME    = EARTH
REF_FRAME      = TEME
TIME_SYSTEM    = UTC
MEAN_ELEMENT_THEORY = SGP/SGP4

EPOCH          = 2025-12-08T20:40:52.882752
MEAN_MOTION    = 14.19495379
ECCENTRICITY   = .00049258
INCLINATION    = 49.9968
RA_OF_ASC_NODE = 278.4258
ARG_OF_PERICENTER = 347.5577
MEAN_ANOMALY   = 12.5212

EPHEMERIS_TYPE = 0
CLASSIFICATION_TYPE = U
NORAD_CAT_ID   = 66413
ELEMENT_SET_NO = 999
REV_AT_EPOCH   = 410
BSTAR          = .48755309E-3
MEAN_MOTION_DOT = .876E-5
MEAN_MOTION_DDOT = 0

CCSDS_OMM_VERS = 2.0
CREATION_DATE  = 
ORIGINATOR     = 

OBJECT_NAME    = HULIANWANG DIGUI 13C
OBJECT_ID      = 2025-258C
CENTER_NAME    = EARTH
REF_FRAME      = TEME
TIME_SYSTEM    = UTC
MEAN_ELEMENT_THEORY = SGP/SGP4

EPOCH          = 2025-12-09T03:21:13.066848
MEAN_MOTION    = 14.19246085
ECCENTRICITY   = .00047063
INCLINATION    = 50.0081
RA_OF_ASC_NODE = 277.2503
ARG_OF_PERICENTER = 342.5024
MEAN_ANOMALY   = 17.5724

EPHEMERIS_TYPE = 0
CLASSIFICATION_TYPE = U
NORAD_CAT_ID   = 66414
ELEMENT_SET_NO = 999
REV_AT_EPOCH   = 414
BSTAR          = .41183983E-3
MEAN_MOTION_DOT = .711E-5
MEAN_MOTION_DDOT = 0

CCSDS_OMM_VERS = 2.0
CREATION_DATE  = 
ORIGINATOR     = 

OBJECT_NAME    = HULIANWANG DIGUI 13D
OBJECT_ID      = 2025-258D
CENTER_NAME    = EARTH
REF_FRAME      = TEME
TIME_SYSTEM    = UTC
MEAN_ELEMENT_THEORY = SGP/SGP4

EPOCH          = 2025-12-08T18:43:14.477088
MEAN_MOTION    = 14.20669566
ECCENTRICITY   = .00073015
INCLINATION    = 50.0039
RA_OF_ASC_NODE = 278.6799
ARG_OF_PERICENTER = 351.1938
MEAN_ANOMALY   = 8.8844

EPHEMERIS_TYPE = 0
CLASSIFICATION_TYPE = U
NORAD_CAT_ID   = 66415
ELEMENT_SET_NO = 999
REV_AT_EPOCH   = 409
BSTAR          = .31109029E-3
MEAN_MOTION_DOT = .516E-5
MEAN_MOTION_DDOT = 0

