STARLINK-35691          
1 66404U 25257AA  25343.66668981  .00114566  00000+0  28382-2 0  9995
2 66404  53.1585 278.5620 0001072  99.2920 225.2036 15.39545706  6001
STARLINK-35683          
1 66405U 25257AB  25343.66668981 -.01308126  00000+0 -35168-1 0  9995
2 66405  53.1588 278.5106 0001557 116.4894 233.2167 15.40571857  5847
STARLINK-34840          
1 66406U 25257AC  25343.46887475  .00126269  00000+0  22382-2 0  9993
2 66406  53.1580 279.3888 0001259 122.2411 237.8720 15.49355554  5810
STARLINK-35686          
1 66407U 25257AD  25343.66668981 -.02013194  00000+0 -48985-1 0  9997
2 66407  53.1582 278.4732 0000995 105.5240 263.1126 15.43890994  6001
STARLINK-35679          
1 66408U 25257AE  25343.21119007  .00128284  00000+0  22741-2 0  9995
2 66408  53.1586 280.6256 0001457  79.4108 280.7065 15.49344451  5833
CHUTIAN-2 A             
1 66409U 25256A   25343.62028947  .00001647  00000+0  43679-3 0  9999
2 66409  98.2770  48.4355 0013557 187.1977 172.9025 14.49935752  4425
CHUTIAN-2 B             
1 66410U 25256B   25342.50072219  .00001327  00000+0  34704-3 0  9992
2 66410  98.2797  47.3789 0013696 193.7504 166.3320 14.50918128  4265
ZK-1A R/B               
1 66411U 25256C   25343.64951453  .00019584  00000+0  84958-3 0  9995
2 66411  98.3223  51.2092 0228619 255.2836 102.2950 15.01876313  4586
HULIANWANG DIGUI 13A    
1 66412U 25258A   25342.35984513  .00000557  00000+0  33138-3 0  9992
2 66412  50.0042 280.4566 0007658 343.0746  16.9909 14.20432847  4032
HULIANWANG DIGUI 13B    
1 66413U 25258B   25342.86172318  .00000876  00000+0  48755-3 0  9996
2 66413  49.9968 278.4258 0004925 347.5577  12.5212 14.19495379  4101
HULIANWANG DIGUI 13C    
1 66414U 25258C   25343.13973457  .00000711  00000+0  41184-3 0  9998
2 66414  50.0081 277.2503 0004706 342.5024  17.5724 14.19246085  4145
HULIANWANG DIGUI 13D    
1 66415U 25258D   25342.78002867  .00000516  00000+0  31109-3 0  9996
2 66415  50.0039 278.6799 0007301 351.1938   8.8844 14.20669566  4090
